NORAD_CAT_ID,OBJECT_NAME,OBJECT_TYPE,EPOCH,MEAN_MOTION,ECCENTRICITY,INCLINATION,RA_OF_ASC_NODE,ARG_OF_PERICENTER,MEAN_ANOMALY,BSTAR,MEAN_MOTION_DOT,MEAN_MOTION_DDOT,TLE_LINE0,TLE_LINE1,TLE_LINE2,SEMIMAJOR_AXIS,PERIOD,APOGEE,PERIGEE,DECAYED
51989.0,STARLINK-3642,PAYLOAD,2024-04-24 12:24:56,15.08831862,0.0001916,53.2179,230.4871,120.8623,239.2558,0.00022542,3.301e-05,0.0,0 STARLINK-3642,1 51989U 22025AK  24115.51731640  .00003301  00000-0  22542-3 0  9998,2 51989  53.2179 230.4871 0001916 120.8623 239.2558 15.08831862118876,6917.905,95.438,541.096,538.445,0.0
51989.0,STARLINK-3642,PAYLOAD,2024-04-24 14:00:19,15.088323,0.00016,53.2174,230.1911,97.6762,262.4412,0.00035004,5.286e-05,0.0,0 STARLINK-3642,1 51989U 22025AK  24115.58355909  .00005286  00000-0  35004-3 0  9996,2 51989  53.2174 230.1911 0001600  97.6762 262.4412 15.08832300117782,6917.904,95.438,540.876,538.662,0.0
51989.0,STARLINK-3642,PAYLOAD,2024-04-25 13:51:07,15.08843954,0.0001799,53.2173,225.7341,79.5999,280.5196,0.00040479,6.161e-05,0.0,0 STARLINK-3642,1 51989U 22025AK  24116.57716443  .00006161  00000-0  40479-3 0  9995,2 51989  53.2173 225.7341 0001799  79.5999 280.5196 15.08843954117932,6917.868,95.437,540.978,538.489,0.0
51989.0,STARLINK-3642,PAYLOAD,2024-04-26 13:41:53,15.08851491,0.0001529,53.2165,221.2718,97.1624,262.9542,0.00035899,5.432e-05,0.0,0 STARLINK-3642,1 51989U 22025AK  24117.57075961  .00005432  00000-0  35899-3 0  9999,2 51989  53.2165 221.2718 0001529  97.1624 262.9542 15.08851491118085,6917.845,95.437,540.768,538.653,0.0
51989.0,STARLINK-3642,PAYLOAD,2024-04-26 16:52:39,15.08855522,0.0001425,53.216,220.6763,100.9388,259.1764,0.00043594,6.66e-05,0.0,0 STARLINK-3642,1 51989U 22025AK  24117.70323628  .00006660  00000-0  43594-3 0  9995,2 51989  53.2160 220.6763 0001425 100.9388 259.1764 15.08855522119206,6917.833,95.437,540.684,538.712,0.0
51989.0,STARLINK-3642,PAYLOAD,2024-04-27 13:32:39,15.08873582,0.0001298,53.2164,216.812,74.3266,285.7869,0.00062717,9.717e-05,0.0,0 STARLINK-3642,1 51989U 22025AK  24118.56434102  .00009717  00000-0  62717-3 0  9994,2 51989  53.2164 216.8120 0001298  74.3266 285.7869 15.08873582118230,6917.778,95.435,540.541,538.745,0.0
51989.0,STARLINK-3642,PAYLOAD,2024-04-28 05:26:31,15.08832833,0.0002584,53.2162,213.836,86.4642,273.6646,-0.00048721,-8.033e-05,0.0,0 STARLINK-3642,1 51989U 22025AK  24119.22675125 -.00008033  00000-0 -48721-3 0  9991,2 51989  53.2162 213.8360 0002584  86.4642 273.6646 15.08832833119438,6917.902,95.438,541.555,537.98,0.0
51989.0,STARLINK-3642,PAYLOAD,2024-04-28 11:48:04,15.08819605,0.000151,53.2173,212.6502,107.4269,252.6888,-0.00052571,-8.64e-05,0.0,0 STARLINK-3642,1 51989U 22025AK  24119.49171804 -.00008640  00000-0 -52571-3 0  9997,2 51989  53.2173 212.6502 0001510 107.4269 252.6888 15.08819605119473,6917.943,95.439,540.852,538.763,0.0
51989.0,STARLINK-3642,PAYLOAD,2024-04-29 05:17:19,15.0883031,0.0001581,53.219,209.3796,113.5885,246.5273,-5.4597e-05,-1.157e-05,0.0,0 STARLINK-3642,1 51989U 22025AK  24120.22035983 -.00001157  00000-0 -54597-4 0  9994,2 51989  53.2190 209.3796 0001581 113.5885 246.5273 15.08830310119588,6917.91,95.438,540.869,538.681,0.0
51989.0,STARLINK-3642,PAYLOAD,2024-04-29 13:14:15,15.08840141,0.000129,53.2163,207.8928,108.3441,251.7692,0.0009384,0.00014678,0.0,0 STARLINK-3642,1 51989U 22025AK  24120.55156449  .00014678  00000-0  93840-3 0  9994,2 51989  53.2163 207.8928 0001290 108.3441 251.7692 15.08840141118535,6917.88,95.438,540.637,538.853,0.0
51989.0,STARLINK-3642,PAYLOAD,2024-04-29 22:46:33,15.08853524,0.000118,53.2154,206.1081,91.4459,268.6668,0.00083852,0.00013087,0.0,0 STARLINK-3642,1 51989U 22025AK  24120.94900231  .00013087  00000-0  83852-3 0  9998,2 51989  53.2154 206.1081 0001180  91.4459 268.6668 15.08853524119693,6917.839,95.437,540.52,538.888,0.0
51989.0,STARLINK-3642,PAYLOAD,2024-04-30 11:29:38,15.08853801,0.0001242,53.2158,203.7293,89.1334,270.98,0.00046831,7.176e-05,0.0,0 STARLINK-3642,1 51989U 22025AK  24121.47891973  .00007176  00000-0  46831-3 0  9997,2 51989  53.2158 203.7293 0001242  89.1334 270.9800 15.08853801119771,6917.838,95.437,540.562,538.844,0.0
51989.0,STARLINK-3642,PAYLOAD,2024-05-01 11:20:26,15.08848028,0.0001597,53.2151,199.2679,73.2905,286.8263,0.00072899,0.00011335,0.0,0 STARLINK-3642,1 51989U 22025AK  24122.47252343  .00011335  00000-0  72899-3 0  9995,2 51989  53.2151 199.2679 0001597  73.2905 286.8263 15.08848028119923,6917.856,95.437,540.826,538.616,0.0
51989.0,STARLINK-3642,PAYLOAD,2024-05-01 22:28:08,15.08837283,8.79e-05,53.2142,197.1842,79.2575,280.8516,0.00033848,5.103e-05,0.0,0 STARLINK-3642,1 51989U 22025AK  24122.93620532  .00005103  00000-0  33848-3 0  9992,2 51989  53.2142 197.1842 0000879  79.2575 280.8516 15.08837283119996,6917.889,95.438,540.362,539.146,0.0
51989.0,STARLINK-3642,PAYLOAD,2024-05-02 14:21:59,15.08855322,0.000121,53.214,194.2112,66.2371,293.8748,0.00050286,7.727e-05,0.0,0 STARLINK-3642,1 51989U 22025AK  24123.59860021  .00007727  00000-0  50286-3 0  9993,2 51989  53.2140 194.2112 0001210  66.2371 293.8748 15.08855322118996,6917.834,95.437,540.536,538.861,0.0
51989.0,STARLINK-3642,PAYLOAD,2024-05-03 14:12:45,15.08867038,0.0001355,53.2156,189.7499,76.2627,283.8516,0.00047256,7.246e-05,0.0,0 STARLINK-3642,1 51989U 22025AK  24124.59218858  .00007246  00000-0  47256-3 0  9998,2 51989  53.2156 189.7499 0001355  76.2627 283.8516 15.08867038119142,6917.798,95.436,540.6,538.725,0.0
51989.0,STARLINK-3642,PAYLOAD,2024-05-04 04:31:13,15.08834022,0.0001345,53.216,187.0731,71.3199,288.7939,-0.00032228,-5.412e-05,0.0,0 STARLINK-3642,1 51989U 22025AK  24125.18835615 -.00005412  00000-0 -32228-3 0  9998,2 51989  53.2160 187.0731 0001345  71.3199 288.7939 15.08834022120339,6917.899,95.438,540.694,538.833,0.0
51989.0,STARLINK-3642,PAYLOAD,2024-05-05 09:08:11,15.08836828,0.0001222,53.2159,181.7233,86.2233,273.8899,0.00014513,2.022e-05,0.0,0 STARLINK-3642,1 51989U 22025AK  24126.38068643  .00002022  00000-0  14513-3 0  9999,2 51989  53.2159 181.7233 0001222  86.2233 273.8899 15.08836828120519,6917.89,95.438,540.6,538.91,0.0
51989.0,STARLINK-3642,PAYLOAD,2024-05-05 20:15:53,15.08843827,0.0001184,53.2158,179.6419,87.985,272.1278,0.0005354,8.244e-05,0.0,0 STARLINK-3642,1 51989U 22025AK  24126.84436788  .00008244  00000-0  53540-3 0  9994,2 51989  53.2158 179.6419 0001184  87.9850 272.1278 15.08843827119484,6917.869,95.437,540.553,538.915,0.0
51989.0,STARLINK-3642,PAYLOAD,2024-05-06 10:34:20,15.08872833,0.0001147,53.2152,176.965,85.0982,275.0142,0.0011422,0.00017953,0.0,0 STARLINK-3642,1 51989U 22025AK  24127.44051928  .00017953  00000-0  11422-2 0  9999,2 51989  53.2152 176.9650 0001147  85.0982 275.0142 15.08872833120673,6917.78,95.435,540.439,538.852,0.0
51989.0,STARLINK-3642,PAYLOAD,2024-05-06 20:06:39,15.08866044,7.51e-05,53.2153,175.1828,104.6109,255.4966,0.00060816,9.411e-05,0.0,0 STARLINK-3642,1 51989U 22025AK  24127.83795422  .00009411  00000-0  60816-3 0  9998,2 51989  53.2153 175.1828 0000751 104.6109 255.4966 15.08866044120731,6917.801,95.436,540.185,539.146,0.0
51989.0,STARLINK-3642,PAYLOAD,2024-05-07 12:00:30,15.08847508,0.0001356,53.2154,172.2078,91.3989,268.7158,0.0001156,1.553e-05,0.0,0 STARLINK-3642,1 51989U 22025AK  24128.50035591  .00001553  00000-0  11560-3 0  9998,2 51989  53.2154 172.2078 0001356  91.3989 268.7158 15.08847508120832,6917.857,95.437,540.661,538.784,0.0
51989.0,STARLINK-3642,PAYLOAD,2024-05-08 11:51:18,15.08839993,0.0001331,53.2148,167.7459,88.8144,271.3001,-1.5653e-05,-5.37e-06,0.0,0 STARLINK-3642,1 51989U 22025AK  24129.49396128 -.00000537  00000-0 -15653-4 0  9994,2 51989  53.2148 167.7459 0001331  88.8144 271.3001 15.08839993120986,6917.88,95.438,540.666,538.825,0.0
51989.0,STARLINK-3642,PAYLOAD,2024-05-08 19:48:14,15.08839869,0.0001376,53.2153,166.2585,87.7404,272.3746,5.8348e-05,6.41e-06,0.0,0 STARLINK-3642,1 51989U 22025AK  24129.82516253  .00000641  00000-0  58348-4 0  9996,2 51989  53.2153 166.2585 0001376  87.7404 272.3746 15.08839869119934,6917.881,95.438,540.698,538.794,0.0
51989.0,STARLINK-3642,PAYLOAD,2024-05-09 08:31:19,15.08846395,0.0001329,53.2149,163.8795,89.7771,270.3373,0.00023606,3.472e-05,0.0,0 STARLINK-3642,1 51989U 22025AK  24130.35508129  .00003472  00000-0  23606-3 0  9992,2 51989  53.2149 163.8795 0001329  89.7771 270.3373 15.08846395120019,6917.861,95.437,540.645,538.806,0.0
51989.0,STARLINK-3642,PAYLOAD,2024-05-10 11:32:52,15.08850598,0.0001284,53.2145,158.8242,89.778,270.3359,0.00028209,4.206e-05,0.0,0 STARLINK-3642,1 51989U 22025AK  24131.48116024  .00004206  00000-0  28209-3 0  9996,2 51989  53.2145 158.8242 0001284  89.7780 270.3359 15.08850598121280,6917.848,95.437,540.601,538.825,0.0
51989.0,STARLINK-3642,PAYLOAD,2024-05-11 05:02:06,15.08843709,0.000162,53.2144,155.5522,99.1082,261.0093,9.0367e-05,1.151e-05,0.0,0 STARLINK-3642,1 51989U 22025AK  24132.20980228  .00001151  00000-0  90367-4 0  9993,2 51989  53.2144 155.5522 0001620  99.1082 261.0093 15.08843709121398,6917.869,95.437,540.855,538.613,0.0
51989.0,STARLINK-3642,PAYLOAD,2024-05-11 08:12:52,15.08868268,0.0001767,53.2149,154.9597,98.2731,261.8462,0.00071944,0.00011189,0.0,0 STARLINK-3642,1 51989U 22025AK  24132.34227928  .00011189  00000-0  71944-3 0  9990,2 51989  53.2149 154.9597 0001767  98.2731 261.8462 15.08868268121419,6917.794,95.436,540.881,538.437,0.0
51989.0,STARLINK-3642,PAYLOAD,2024-05-12 04:52:54,15.08774635,0.0001141,53.216,151.0865,55.9774,304.1327,-0.0018893,-0.00030176,0.0,0 STARLINK-3642,1 51989U 22025AK  24133.20341125 -.00030176  00000-0 -18893-2 0  9994,2 51989  53.2160 151.0865 0001141  55.9774 304.1327 15.08774635121540,6918.08,95.442,540.735,539.156,0.0
51989.0,STARLINK-3642,PAYLOAD,2024-05-12 08:03:42,15.08765758,0.0001532,53.2154,150.4976,103.153,256.9633,-0.0015033,-0.00024085,0.0,0 STARLINK-3642,1 51989U 22025AK  24133.33590963 -.00024085  00000-0 -15033-2 0  9999,2 51989  53.2154 150.4976 0001532 103.1530 256.9633 15.08765758121561,6918.107,95.442,541.032,538.912,0.0
